[
  {
    "id": 2,
    "flat_no": 22,
    "street": "NKedrdfs",
    "landmark": "BM9YpCXmAo6GK23YrsSHE2QyvhSqv7D8CuGJdRfXvo9bpKqE1TX",
    "city": "Kdfghjkliuytrfd",
    "pincode": 3945912
  },
  {
    "id": 3,
    "flat_no": 22,
    "street": "NKedrdfs",
    "landmark": "BLbDC4ab1fdBYSt58rZTafYaR3RVdZJXaEvxLrUVW3BZkQjdoyz",
    "city": "Kdfghjkliuytrfd",
    "pincode": 7809635
  },
  {
    "id": 4,
    "flat_no": 32,
    "street": "Alpine",
    "landmark": "BMcYCBdfHbB99214Xjc3jZ5m9J8QUakPrnVotgLT5F3nHWywtny",
    "city": "Qingshui",
    "pincode": 9733575
  },
  {
    "id": 5,
    "flat_no": 38,
    "street": "Warrior",
    "landmark": "BMGkUdtDMjB8GfB8xk449ymQ55bcMahcZphA3aZLKLYRX1s2yX5",
    "city": "Písečná",
    "pincode": 380796
  },
  {
    "id": 6,
    "flat_no": 12,
    "street": "Village",
    "landmark": "BLfNmjiBRzgkRYmhG8u4zQ6kq29rKb7N9HWZbNBorcptz8Z87GM",
    "city": "Nangong",
    "pincode": 2416391
  },
  {
    "id": 7,
    "flat_no": 35,
    "street": "Cambridge",
    "landmark": "BL5GZH86A4jhHwvQghJUQtYzG8uy9dbW1AiKpnRPqJeoSosLDSJ",
    "city": "Comendador",
    "pincode": 6989830
  },
  {
    "id": 8,
    "flat_no": 59,
    "street": "Monica",
    "landmark": "BKjQ2SBktyxVi5WwfsghRYnK6zdJPQeHUT4yJaqb6Wpvr7zteNk",
    "city": "Góra",
    "pincode": 4643245
  },
  {
    "id": 9,
    "flat_no": 38,
    "street": "Elgar",
    "landmark": "BKnZ28iznwKjHgQ76LvQiRMuh5bkFYfGA3xBP1AYMwDVK22R6qD",
    "city": "Valladolid",
    "pincode": 7388423
  },
  {
    "id": 10,
    "flat_no": 3,
    "street": "Donald",
    "landmark": "BLwpWuW182G3UQwz3Zc2wromSQuryuoGWU17e2TXzyhKiJkHcuT",
    "city": "Kwangju",
    "pincode": 6556500
  },
  {
    "id": 11,
    "flat_no": 2,
    "street": "NK",
    "landmark": "BLwpWuW182G3UQwz3Zc2wromSQuryuoGWU17e2TXzyhKiJkHcuT",
    "city": "Kwangju",
    "pincode": 6556500
  },
  {
    "id": 12,
    "flat_no": 9,
    "street": "NKedr",
    "landmark": "BLwpWuW182G3UQwz3Zc2wromSQuryuoGWU17e2TXzyhKiJkHcuT",
    "city": "Kdfghjkliuytrfd",
    "pincode": 6556500
  },
  {
    "id": 13,
    "flat_no": 94,
    "street": "NKedrdfs",
    "landmark": "BLwpWuW182G3UQwz3Zc2wromSQuryuoGWU17e2TXzyhKiJkHcuT",
    "city": "Kdfghjkliuytrfd",
    "pincode": 6556500
  }
]